THOR 7
1 40613U 15022A   26087.33072650 -.00000028  00000+0  00000+0 0  9992
2 40613   0.0066 148.8653 0002588 215.4281 299.8646  1.00273049 40003